{
  "type": "FeatureCollection",
  "features": [
    {
      "type": "Feature",
      "properties": {
        "norad_id": 34396,
        "name": "COSMOS 2251 DEB",
        "group": "cosmos-2251-debris",
        "lat": 15.357730130645512,
        "lon": 103.64604974764526,
        "alt_km": 647.9036177306334,
        "timestamp": "2025-12-25T11:37:44.833654+00:00",
        "meta_object_name": "COSMOS 2251 DEB",
        "meta_object_id": "1993-036QM",
        "meta_epoch": "2025-12-24T18:13:29.856576",
        "meta_mean_motion": 14.74724454,
        "meta_eccentricity": 0.00045314,
        "meta_inclination": 74.0296,
        "meta_ra_of_asc_node": 100.5513,
        "meta_arg_of_pericenter": 135.4708,
        "meta_mean_anomaly": 352.3031,
        "meta_ephemeris_type": 0,
        "meta_classification_type": "U",
        "meta_norad_cat_id": 34396,
        "meta_element_set_no": 999,
        "meta_rev_at_epoch": 88523,
        "meta_bstar": 0.0020013684,
        "meta_mean_motion_dot": 0.00013376,
        "meta_mean_motion_ddot": 0,
        "tle_line1": "1 34396U 93036QM  25358.75937334  .00013376  00000+0  20014-2 0  9998",
        "tle_line2": "2 34396  74.0296 100.5513 0004531 135.4708 352.3031 14.74724454885236"
      },
      "geometry": {
        "type": "Point",
        "coordinates": [
          103.64604974764526,
          15.357730130645512
        ]
      }
    },
    {
      "type": "Feature",
      "properties": {
        "norad_id": 34400,
        "name": "COSMOS 2251 DEB",
        "group": "cosmos-2251-debris",
        "lat": 31.979783169456006,
        "lon": 164.6604761500563,
        "alt_km": 386.54635215788767,
        "timestamp": "2025-12-25T11:37:44.833664+00:00",
        "meta_object_name": "COSMOS 2251 DEB",
        "meta_object_id": "1993-036QR",
        "meta_epoch": "2025-12-24T01:07:12.164448",
        "meta_mean_motion": 15.58635981,
        "meta_eccentricity": 0.00028837,
        "meta_inclination": 73.9625,
        "meta_ra_of_asc_node": 358.2177,
        "meta_arg_of_pericenter": 215.0661,
        "meta_mean_anomaly": 145.0367,
        "meta_ephemeris_type": 0,
        "meta_classification_type": "U",
        "meta_norad_cat_id": 34400,
        "meta_element_set_no": 999,
        "meta_rev_at_epoch": 90150,
        "meta_bstar": 0.0033378255,
        "meta_mean_motion_dot": 0.00264923,
        "meta_mean_motion_ddot": 0,
        "tle_line1": "1 34400U 93036QR  25358.04666857  .00264923  00000+0  33378-2 0  9998",
        "tle_line2": "2 34400  73.9625 358.2177 0002883 215.0661 145.0367 15.58635981901502"
      },
      "geometry": {
        "type": "Point",
        "coordinates": [
          164.6604761500563,
          31.979783169456006
        ]
      }
    },
    {
      "type": "Feature",
      "properties": {
        "norad_id": 34409,
        "name": "COSMOS 2251 DEB",
        "group": "cosmos-2251-debris",
        "lat": -45.56233981629767,
        "lon": 119.5740038668693,
        "alt_km": 738.821525331371,
        "timestamp": "2025-12-25T11:37:44.833675+00:00",
        "meta_object_name": "COSMOS 2251 DEB",
        "meta_object_id": "1993-036RA",
        "meta_epoch": "2025-12-24T21:42:50.607360",
        "meta_mean_motion": 14.58056072,
        "meta_eccentricity": 0.008039,
        "meta_inclination": 74.0637,
        "meta_ra_of_asc_node": 283.7332,
        "meta_arg_of_pericenter": 354.9002,
        "meta_mean_anomaly": 71.6273,
        "meta_ephemeris_type": 0,
        "meta_classification_type": "U",
        "meta_norad_cat_id": 34409,
        "meta_element_set_no": 999,
        "meta_rev_at_epoch": 89370,
        "meta_bstar": 0.00025381,
        "meta_mean_motion_dot": 1.189e-05,
        "meta_mean_motion_ddot": 0,
        "tle_line1": "1 34409U 93036RA  25358.90475240  .00001189  00000+0  25381-3 0  9995",
        "tle_line2": "2 34409  74.0637 283.7332 0080390 354.9002  71.6273 14.58056072893701"
      },
      "geometry": {
        "type": "Point",
        "coordinates": [
          119.5740038668693,
          -45.56233981629767
        ]
      }
    },
    {
      "type": "Feature",
      "properties": {
        "norad_id": 34410,
        "name": "COSMOS 2251 DEB",
        "group": "cosmos-2251-debris",
        "lat": -24.411182951360995,
        "lon": 62.17405404687705,
        "alt_km": 520.4934789457038,
        "timestamp": "2025-12-25T11:37:44.833685+00:00",
        "meta_object_name": "COSMOS 2251 DEB",
        "meta_object_id": "1993-036RB",
        "meta_epoch": "2025-12-24T15:54:46.238688",
        "meta_mean_motion": 15.20004052,
        "meta_eccentricity": 0.00211644,
        "meta_inclination": 73.7357,
        "meta_ra_of_asc_node": 236.3127,
        "meta_arg_of_pericenter": 75.5551,
        "meta_mean_anomaly": 316.1115,
        "meta_ephemeris_type": 0,
        "meta_classification_type": "U",
        "meta_norad_cat_id": 34410,
        "meta_element_set_no": 999,
        "meta_rev_at_epoch": 89955,
        "meta_bstar": 0.0023683134,
        "meta_mean_motion_dot": 0.00051663,
        "meta_mean_motion_ddot": 0,
        "tle_line1": "1 34410U 93036RB  25358.66303517  .00051663  00000+0  23683-2 0  9991",
        "tle_line2": "2 34410  73.7357 236.3127 0021164  75.5551 316.1115 15.20004052899555"
      },
      "geometry": {
        "type": "Point",
        "coordinates": [
          62.17405404687705,
          -24.411182951360995
        ]
      }
    },
    {
      "type": "Feature",
      "properties": {
        "norad_id": 34412,
        "name": "COSMOS 2251 DEB",
        "group": "cosmos-2251-debris",
        "lat": -56.497347937040836,
        "lon": -85.13999539108872,
        "alt_km": 745.454012234537,
        "timestamp": "2025-12-25T11:37:44.833695+00:00",
        "meta_object_name": "COSMOS 2251 DEB",
        "meta_object_id": "1993-036RD",
        "meta_epoch": "2025-12-24T06:02:29.414112",
        "meta_mean_motion": 14.47276709,
        "meta_eccentricity": 0.01876387,
        "meta_inclination": 73.949,
        "meta_ra_of_asc_node": 302.9581,
        "meta_arg_of_pericenter": 35.3619,
        "meta_mean_anomaly": 325.9814,
        "meta_ephemeris_type": 0,
        "meta_classification_type": "U",
        "meta_norad_cat_id": 34412,
        "meta_element_set_no": 999,
        "meta_rev_at_epoch": 87817,
        "meta_bstar": 0.0018649119,
        "meta_mean_motion_dot": 8.49e-05,
        "meta_mean_motion_ddot": 0,
        "tle_line1": "1 34412U 93036RD  25358.25172933  .00008490  00000+0  18649-2 0  9990",
        "tle_line2": "2 34412  73.9490 302.9581 0187638  35.3619 325.9814 14.47276709878176"
      },
      "geometry": {
        "type": "Point",
        "coordinates": [
          -85.13999539108872,
          -56.497347937040836
        ]
      }
    },
    {
      "type": "Feature",
      "properties": {
        "norad_id": 34413,
        "name": "COSMOS 2251 DEB",
        "group": "cosmos-2251-debris",
        "lat": -32.77045836131684,
        "lon": -128.89223327152112,
        "alt_km": 735.9239986260081,
        "timestamp": "2025-12-25T11:37:44.833706+00:00",
        "meta_object_name": "COSMOS 2251 DEB",
        "meta_object_id": "1993-036RE",
        "meta_epoch": "2025-12-24T22:25:10.363872",
        "meta_mean_motion": 14.291856,
        "meta_eccentricity": 0.0090951,
        "meta_inclination": 74.0301,
        "meta_ra_of_asc_node": 242.7297,
        "meta_arg_of_pericenter": 316.973,
        "meta_mean_anomaly": 57.9695,
        "meta_ephemeris_type": 0,
        "meta_classification_type": "U",
        "meta_norad_cat_id": 34413,
        "meta_element_set_no": 999,
        "meta_rev_at_epoch": 87305,
        "meta_bstar": 0.0013959,
        "meta_mean_motion_dot": 3.681e-05,
        "meta_mean_motion_ddot": 0,
        "tle_line1": "1 34413U 93036RE  25358.93414773  .00003681  00000+0  13959-2 0  9993",
        "tle_line2": "2 34413  74.0301 242.7297 0090951 316.9730  57.9695 14.29185600873058"
      },
      "geometry": {
        "type": "Point",
        "coordinates": [
          -128.89223327152112,
          -32.77045836131684
        ]
      }
    },
    {
      "type": "Feature",
      "properties": {
        "norad_id": 34420,
        "name": "COSMOS 2251 DEB",
        "group": "cosmos-2251-debris",
        "lat": 50.40339278638463,
        "lon": 99.55798493995701,
        "alt_km": 721.6567682506302,
        "timestamp": "2025-12-25T11:37:44.833716+00:00",
        "meta_object_name": "COSMOS 2251 DEB",
        "meta_object_id": "1993-036RM",
        "meta_epoch": "2025-12-25T01:53:27.691008",
        "meta_mean_motion": 14.68332611,
        "meta_eccentricity": 0.0106055,
        "meta_inclination": 74.0333,
        "meta_ra_of_asc_node": 80.0919,
        "meta_arg_of_pericenter": 198.2983,
        "meta_mean_anomaly": 231.8315,
        "meta_ephemeris_type": 0,
        "meta_classification_type": "U",
        "meta_norad_cat_id": 34420,
        "meta_element_set_no": 999,
        "meta_rev_at_epoch": 89951,
        "meta_bstar": 0.00021975,
        "meta_mean_motion_dot": 1.346e-05,
        "meta_mean_motion_ddot": 0,
        "tle_line1": "1 34420U 93036RM  25359.07879272  .00001346  00000+0  21975-3 0  9990",
        "tle_line2": "2 34420  74.0333  80.0919 0106055 198.2983 231.8315 14.68332611899519"
      },
      "geometry": {
        "type": "Point",
        "coordinates": [
          99.55798493995701,
          50.40339278638463
        ]
      }
    }
  ]
}